LEMUR-2-JK0903EM1407    
1 58336U 23174CJ  26095.18587631  .00031091  00000+0  59033-3 0  9999
2 58336  97.3894 183.8299 0004824  28.4463 331.7050 15.48225610134429
LEMUR-2-MJR092620       
1 58340U 23174CN  26095.23515919  .00015608  00000+0  35679-3 0  9996
2 58340  97.3961 184.0582 0007071  33.7812 326.3885 15.42898475134392
LEMUR-2-NIMBUS2000      
1 58899U 24022A   26095.11933904  .00020630  00000+0  55600-3 0  9990
2 58899  97.4194 304.2941 0009622  29.5098 330.6688 15.37803007121035
LEMUR-2-VALHALLA        
1 58900U 24022B   26095.10267020  .00019387  00000+0  52684-3 0  9997
2 58900  97.4188 304.3005 0010030  25.1082 335.0649 15.37555782121033
LEMUR-2-OBA-NI-JESU     
1 58902U 24022D   26095.14403278  .00167405  00000+0  12494-2 0  9999
2 58902  97.3985 314.6732 0002242 333.9434  26.1716 15.72228314121745
LEMUR-2-CAEL            
1 58903U 24022E   26095.10552800  .00020429  00000+0  53466-3 0  9991
2 58903  97.4174 305.1184 0007889  10.2114 349.9290 15.38726834121098
LEMUR-2-JOHNNYTRUONG    
1 59146U 24043BA  26094.92182013  .00041324  00000+0  60809-3 0  9994
2 59146  97.5307 242.4224 0004975  96.0018 264.1803 15.55327250116633
LEMUR-2-TOMATOKECHUP    
1 60471U 24149D   26095.17364249  .00016386  00000+0  49137-3 0  9996
2 60471  97.3807 177.1176 0003213 120.8626 239.2933 15.34550479 90966
LEMUR-2-STELLA          
1 60533U 24149BT  26095.23632968  .00017443  00000+0  10682-2 0  9995
2 60533  97.6742 177.4643 0000799 119.9825 240.1483 15.10257586 89487
LEMUR-2-MARHISYAM       
1 60536U 24149BW  26095.19193519  .00015913  00000+0  98795-3 0  9999
2 60536  97.6877 177.7905 0002149  46.4844 313.6563 15.09775053 89464
LEMUR-2-AHMED-ASRAR     
1 60576U 24149DN  26095.16050443  .00016729  00000+0  10007-2 0  9993
2 60576  97.7005 179.5805 0001287 202.1334 157.9841 15.11119322 89538
LEMUR-2-LLOYD           
1 60577U 24149DP  26095.20993199  .00014304  00000+0  93568-3 0  9994
2 60577  97.6761 176.3795 0004713  57.1543 303.0138 15.07872571 89391
LEMUR-2-SQUIRRELCOMM    
1 60578U 24149DQ  26095.20321522  .00008429  00000+0  57723-3 0  9994
2 60578  97.6723 176.3914 0004020 307.0509  53.0350 15.06318879 89419
LEMUR-2-SIERRINI        
1 60579U 24149DR  26095.20000758  .00015660  00000+0  98069-3 0  9993
2 60579  97.6843 177.5596 0006311  76.9290 283.2642 15.09449345 89446
LEMUR-2-WILSON          
1 62694U 25009CP  26095.20706417  .00003674  00000+0  34251-3 0  9999
2 62694  97.7037 174.9658 0001883 282.7291  77.3719 14.94847778 66457
LEMUR-2-STAR-FOX        
1 62696U 25009CR  26095.20886490  .00012737  00000+0  98870-3 0  9998
2 62696  97.6979 177.4274 0003340 107.7776 252.3813 15.01478559 66602
