[{"OBJECT_NAME":"LEMUR-2-JK0903EM1407","OBJECT_ID":"2023-174CJ","EPOCH":"2026-04-05T04:27:39.713184","MEAN_MOTION":15.4822561,"ECCENTRICITY":0.00048241,"INCLINATION":97.3894,"RA_OF_ASC_NODE":183.8299,"ARG_OF_PERICENTER":28.4463,"MEAN_ANOMALY":331.705,"EPHEMERIS_TYPE":0,"CLASSIFICATION_TYPE":"U","NORAD_CAT_ID":58336,"ELEMENT_SET_NO":999,"REV_AT_EPOCH":13442,"BSTAR":0.00059033013,"MEAN_MOTION_DOT":0.00031091,"MEAN_MOTION_DDOT":0},{"OBJECT_NAME":"LEMUR-2-MJR092620","OBJECT_ID":"2023-174CN","EPOCH":"2026-04-05T05:38:37.754016","MEAN_MOTION":15.42898475,"ECCENTRICITY":0.0007071,"INCLINATION":97.3961,"RA_OF_ASC_NODE":184.0582,"ARG_OF_PERICENTER":33.7812,"MEAN_ANOMALY":326.3885,"EPHEMERIS_TYPE":0,"CLASSIFICATION_TYPE":"U","NORAD_CAT_ID":58340,"ELEMENT_SET_NO":999,"REV_AT_EPOCH":13439,"BSTAR":0.00035679081,"MEAN_MOTION_DOT":0.00015608,"MEAN_MOTION_DDOT":0},{"OBJECT_NAME":"LEMUR-2-NIMBUS2000","OBJECT_ID":"2024-022A","EPOCH":"2026-04-05T02:51:50.893056","MEAN_MOTION":15.37803007,"ECCENTRICITY":0.00096224,"INCLINATION":97.4194,"RA_OF_ASC_NODE":304.2941,"ARG_OF_PERICENTER":29.5098,"MEAN_ANOMALY":330.6688,"EPHEMERIS_TYPE":0,"CLASSIFICATION_TYPE":"U","NORAD_CAT_ID":58899,"ELEMENT_SET_NO":999,"REV_AT_EPOCH":12103,"BSTAR":0.00055600197,"MEAN_MOTION_DOT":0.0002063,"MEAN_MOTION_DDOT":0},{"OBJECT_NAME":"LEMUR-2-VALHALLA","OBJECT_ID":"2024-022B","EPOCH":"2026-04-05T02:27:50.705280","MEAN_MOTION":15.37555782,"ECCENTRICITY":0.00100307,"INCLINATION":97.4188,"RA_OF_ASC_NODE":304.3005,"ARG_OF_PERICENTER":25.1082,"MEAN_ANOMALY":335.0649,"EPHEMERIS_TYPE":0,"CLASSIFICATION_TYPE":"U","NORAD_CAT_ID":58900,"ELEMENT_SET_NO":999,"REV_AT_EPOCH":12103,"BSTAR":0.00052684302,"MEAN_MOTION_DOT":0.00019387,"MEAN_MOTION_DDOT":0},{"OBJECT_NAME":"LEMUR-2-OBA-NI-JESU","OBJECT_ID":"2024-022D","EPOCH":"2026-04-05T03:27:24.432192","MEAN_MOTION":15.72228314,"ECCENTRICITY":0.00022427,"INCLINATION":97.3985,"RA_OF_ASC_NODE":314.6732,"ARG_OF_PERICENTER":333.9434,"MEAN_ANOMALY":26.1716,"EPHEMERIS_TYPE":0,"CLASSIFICATION_TYPE":"U","NORAD_CAT_ID":58902,"ELEMENT_SET_NO":999,"REV_AT_EPOCH":12174,"BSTAR":0.0012494216,"MEAN_MOTION_DOT":0.00167405,"MEAN_MOTION_DDOT":0},{"OBJECT_NAME":"LEMUR-2-CAEL","OBJECT_ID":"2024-022E","EPOCH":"2026-04-05T02:31:57.619200","MEAN_MOTION":15.38726834,"ECCENTRICITY":0.00078896,"INCLINATION":97.4174,"RA_OF_ASC_NODE":305.1184,"ARG_OF_PERICENTER":10.2114,"MEAN_ANOMALY":349.929,"EPHEMERIS_TYPE":0,"CLASSIFICATION_TYPE":"U","NORAD_CAT_ID":58903,"ELEMENT_SET_NO":999,"REV_AT_EPOCH":12109,"BSTAR":0.00053466039,"MEAN_MOTION_DOT":0.00020429,"MEAN_MOTION_DDOT":0},{"OBJECT_NAME":"LEMUR-2-JOHNNYTRUONG","OBJECT_ID":"2024-043BA","EPOCH":"2026-04-04T22:07:25.259232","MEAN_MOTION":15.5532725,"ECCENTRICITY":0.00049753,"INCLINATION":97.5307,"RA_OF_ASC_NODE":242.4224,"ARG_OF_PERICENTER":96.0018,"MEAN_ANOMALY":264.1803,"EPHEMERIS_TYPE":0,"CLASSIFICATION_TYPE":"U","NORAD_CAT_ID":59146,"ELEMENT_SET_NO":999,"REV_AT_EPOCH":11663,"BSTAR":0.00060808835,"MEAN_MOTION_DOT":0.00041324,"MEAN_MOTION_DDOT":0},{"OBJECT_NAME":"LEMUR-2-TOMATOKECHUP","OBJECT_ID":"2024-149D","EPOCH":"2026-04-05T04:10:02.711136","MEAN_MOTION":15.34550479,"ECCENTRICITY":0.00032139,"INCLINATION":97.3807,"RA_OF_ASC_NODE":177.1176,"ARG_OF_PERICENTER":120.8626,"MEAN_ANOMALY":239.2933,"EPHEMERIS_TYPE":0,"CLASSIFICATION_TYPE":"U","NORAD_CAT_ID":60471,"ELEMENT_SET_NO":999,"REV_AT_EPOCH":9096,"BSTAR":0.0004913654,"MEAN_MOTION_DOT":0.00016386,"MEAN_MOTION_DDOT":0},{"OBJECT_NAME":"LEMUR-2-STELLA","OBJECT_ID":"2024-149BT","EPOCH":"2026-04-05T05:40:18.884352","MEAN_MOTION":15.10257586,"ECCENTRICITY":7.99e-5,"INCLINATION":97.6742,"RA_OF_ASC_NODE":177.4643,"ARG_OF_PERICENTER":119.9825,"MEAN_ANOMALY":240.1483,"EPHEMERIS_TYPE":0,"CLASSIFICATION_TYPE":"U","NORAD_CAT_ID":60533,"ELEMENT_SET_NO":999,"REV_AT_EPOCH":8948,"BSTAR":0.0010681959,"MEAN_MOTION_DOT":0.00017443,"MEAN_MOTION_DDOT":0},{"OBJECT_NAME":"LEMUR-2-MARHISYAM","OBJECT_ID":"2024-149BW","EPOCH":"2026-04-05T04:36:23.200416","MEAN_MOTION":15.09775053,"ECCENTRICITY":0.00021492,"INCLINATION":97.6877,"RA_OF_ASC_NODE":177.7905,"ARG_OF_PERICENTER":46.4844,"MEAN_ANOMALY":313.6563,"EPHEMERIS_TYPE":0,"CLASSIFICATION_TYPE":"U","NORAD_CAT_ID":60536,"ELEMENT_SET_NO":999,"REV_AT_EPOCH":8946,"BSTAR":0.00098795323,"MEAN_MOTION_DOT":0.00015913,"MEAN_MOTION_DDOT":0},{"OBJECT_NAME":"LEMUR-2-AHMED-ASRAR","OBJECT_ID":"2024-149DN","EPOCH":"2026-04-05T03:51:07.582752","MEAN_MOTION":15.11119322,"ECCENTRICITY":0.00012875,"INCLINATION":97.7005,"RA_OF_ASC_NODE":179.5805,"ARG_OF_PERICENTER":202.1334,"MEAN_ANOMALY":157.9841,"EPHEMERIS_TYPE":0,"CLASSIFICATION_TYPE":"U","NORAD_CAT_ID":60576,"ELEMENT_SET_NO":999,"REV_AT_EPOCH":8953,"BSTAR":0.0010007241,"MEAN_MOTION_DOT":0.00016729,"MEAN_MOTION_DDOT":0},{"OBJECT_NAME":"LEMUR-2-LLOYD","OBJECT_ID":"2024-149DP","EPOCH":"2026-04-05T05:02:18.123936","MEAN_MOTION":15.07872571,"ECCENTRICITY":0.00047134,"INCLINATION":97.6761,"RA_OF_ASC_NODE":176.3795,"ARG_OF_PERICENTER":57.1543,"MEAN_ANOMALY":303.0138,"EPHEMERIS_TYPE":0,"CLASSIFICATION_TYPE":"U","NORAD_CAT_ID":60577,"ELEMENT_SET_NO":999,"REV_AT_EPOCH":8939,"BSTAR":0.00093568205,"MEAN_MOTION_DOT":0.00014304,"MEAN_MOTION_DDOT":0},{"OBJECT_NAME":"LEMUR-2-SQUIRRELCOMM","OBJECT_ID":"2024-149DQ","EPOCH":"2026-04-05T04:52:37.795008","MEAN_MOTION":15.06318879,"ECCENTRICITY":0.00040206,"INCLINATION":97.6723,"RA_OF_ASC_NODE":176.3914,"ARG_OF_PERICENTER":307.0509,"MEAN_ANOMALY":53.035,"EPHEMERIS_TYPE":0,"CLASSIFICATION_TYPE":"U","NORAD_CAT_ID":60578,"ELEMENT_SET_NO":999,"REV_AT_EPOCH":8941,"BSTAR":0.00057723159,"MEAN_MOTION_DOT":8.429e-5,"MEAN_MOTION_DDOT":0},{"OBJECT_NAME":"LEMUR-2-SIERRINI","OBJECT_ID":"2024-149DR","EPOCH":"2026-04-05T04:48:00.654912","MEAN_MOTION":15.09449345,"ECCENTRICITY":0.00063115,"INCLINATION":97.6843,"RA_OF_ASC_NODE":177.5596,"ARG_OF_PERICENTER":76.929,"MEAN_ANOMALY":283.2642,"EPHEMERIS_TYPE":0,"CLASSIFICATION_TYPE":"U","NORAD_CAT_ID":60579,"ELEMENT_SET_NO":999,"REV_AT_EPOCH":8944,"BSTAR":0.00098069394,"MEAN_MOTION_DOT":0.0001566,"MEAN_MOTION_DDOT":0},{"OBJECT_NAME":"LEMUR-2-WILSON","OBJECT_ID":"2025-009CP","EPOCH":"2026-04-05T04:58:10.344288","MEAN_MOTION":14.94847778,"ECCENTRICITY":0.00018832,"INCLINATION":97.7037,"RA_OF_ASC_NODE":174.9658,"ARG_OF_PERICENTER":282.7291,"MEAN_ANOMALY":77.3719,"EPHEMERIS_TYPE":0,"CLASSIFICATION_TYPE":"U","NORAD_CAT_ID":62694,"ELEMENT_SET_NO":999,"REV_AT_EPOCH":6645,"BSTAR":0.00034251495,"MEAN_MOTION_DOT":3.674e-5,"MEAN_MOTION_DDOT":0},{"OBJECT_NAME":"LEMUR-2-STAR-FOX","OBJECT_ID":"2025-009CR","EPOCH":"2026-04-05T05:00:45.927360","MEAN_MOTION":15.01478559,"ECCENTRICITY":0.00033407,"INCLINATION":97.6979,"RA_OF_ASC_NODE":177.4274,"ARG_OF_PERICENTER":107.7776,"MEAN_ANOMALY":252.3813,"EPHEMERIS_TYPE":0,"CLASSIFICATION_TYPE":"U","NORAD_CAT_ID":62696,"ELEMENT_SET_NO":999,"REV_AT_EPOCH":6660,"BSTAR":0.00098869978,"MEAN_MOTION_DOT":0.00012737,"MEAN_MOTION_DDOT":0}]
